[{"OBJECT_NAME":"ONEWEB-0436","OBJECT_ID":"2022-012M","EPOCH":"2026-03-09T21:18:18.188064","MEAN_MOTION":13.17647825,"ECCENTRICITY":0.00017784,"INCLINATION":87.916,"RA_OF_ASC_NODE":25.5566,"ARG_OF_PERICENTER":89.6815,"MEAN_ANOMALY":270.452,"EPHEMERIS_TYPE":0,"CLASSIFICATION_TYPE":"U","NORAD_CAT_ID":51633,"ELEMENT_SET_NO":999,"REV_AT_EPOCH":20060,"BSTAR":0.00053249449,"MEAN_MOTION_DOT":2.2e-6,"MEAN_MOTION_DDOT":0},{"OBJECT_NAME":"DELTA 1 DEB","OBJECT_ID":"1976-077AB","EPOCH":"2026-03-09T12:38:45.303936","MEAN_MOTION":12.83317891,"ECCENTRICITY":0.03886931,"INCLINATION":101.5469,"RA_OF_ASC_NODE":288.377,"ARG_OF_PERICENTER":348.669,"MEAN_ANOMALY":71.1325,"EPHEMERIS_TYPE":0,"CLASSIFICATION_TYPE":"U","NORAD_CAT_ID":10706,"ELEMENT_SET_NO":999,"REV_AT_EPOCH":30669,"BSTAR":0.0017240621,"MEAN_MOTION_DOT":5.19e-6,"MEAN_MOTION_DDOT":0}]
